{
  "type": "FeatureCollection",
  "features": [
    {
      "type": "Feature",
      "properties": {
        "norad_id": 66926,
        "name": "STARLINK-35942",
        "group": "last-30-days",
        "lat": -51.13871050279874,
        "lon": -85.61429380325704,
        "alt_km": 404.21678547465854,
        "timestamp": "2025-12-26T07:29:17.194817+00:00",
        "meta_object_name": "STARLINK-35942",
        "meta_object_id": "2025-286B",
        "meta_epoch": "2025-12-25T22:00:01.999584",
        "meta_mean_motion": 15.57978735,
        "meta_eccentricity": 0.00015419,
        "meta_inclination": 53.1591,
        "meta_ra_of_asc_node": 344.8052,
        "meta_arg_of_pericenter": 91.234,
        "meta_mean_anomaly": 134.8344,
        "meta_ephemeris_type": 0,
        "meta_classification_type": "U",
        "meta_norad_cat_id": 66926,
        "meta_element_set_no": 999,
        "meta_rev_at_epoch": 410,
        "meta_bstar": -0.029286591,
        "meta_mean_motion_dot": -0.01964212,
        "meta_mean_motion_ddot": 0,
        "tle_line1": "1 66926U 25286B   25359.91668981 -.01964212  00000+0 -29287-1 0  9999",
        "tle_line2": "2 66926  53.1591 344.8052 0001541  91.2340 134.8344 15.57978735  4100"
      },
      "geometry": {
        "type": "Point",
        "coordinates": [
          -85.61429380325704,
          -51.13871050279874
        ]
      }
    },
    {
      "type": "Feature",
      "properties": {
        "norad_id": 66927,
        "name": "STARLINK-35943",
        "group": "last-30-days",
        "lat": -50.542901356013324,
        "lon": -82.7393627351775,
        "alt_km": 404.1935376011679,
        "timestamp": "2025-12-26T07:29:17.194827+00:00",
        "meta_object_name": "STARLINK-35943",
        "meta_object_id": "2025-286C",
        "meta_epoch": "2025-12-25T22:00:01.999584",
        "meta_mean_motion": 15.57983826,
        "meta_eccentricity": 0.00015092,
        "meta_inclination": 53.1598,
        "meta_ra_of_asc_node": 344.8013,
        "meta_arg_of_pericenter": 95.6123,
        "meta_mean_anomaly": 132.3709,
        "meta_ephemeris_type": 0,
        "meta_classification_type": "U",
        "meta_norad_cat_id": 66927,
        "meta_element_set_no": 999,
        "meta_rev_at_epoch": 410,
        "meta_bstar": -0.029431161,
        "meta_mean_motion_dot": -0.01973028,
        "meta_mean_motion_ddot": 0,
        "tle_line1": "1 66927U 25286C   25359.91668981 -.01973028  00000+0 -29431-1 0  9996",
        "tle_line2": "2 66927  53.1598 344.8013 0001509  95.6123 132.3709 15.57983826  4101"
      },
      "geometry": {
        "type": "Point",
        "coordinates": [
          -82.7393627351775,
          -50.542901356013324
        ]
      }
    },
    {
      "type": "Feature",
      "properties": {
        "norad_id": 66928,
        "name": "STARLINK-35944",
        "group": "last-30-days",
        "lat": -51.66319554882443,
        "lon": -88.56048433108317,
        "alt_km": 404.22821760810257,
        "timestamp": "2025-12-26T07:29:17.194837+00:00",
        "meta_object_name": "STARLINK-35944",
        "meta_object_id": "2025-286D",
        "meta_epoch": "2025-12-25T22:00:01.999584",
        "meta_mean_motion": 15.57983357,
        "meta_eccentricity": 0.00015192,
        "meta_inclination": 53.1595,
        "meta_ra_of_asc_node": 344.8085,
        "meta_arg_of_pericenter": 93.7828,
        "meta_mean_anomaly": 130.3644,
        "meta_ephemeris_type": 0,
        "meta_classification_type": "U",
        "meta_norad_cat_id": 66928,
        "meta_element_set_no": 999,
        "meta_rev_at_epoch": 410,
        "meta_bstar": -0.029365962,
        "meta_mean_motion_dot": -0.0196917,
        "meta_mean_motion_ddot": 0,
        "tle_line1": "1 66928U 25286D   25359.91668981 -.01969170  00000+0 -29366-1 0  9997",
        "tle_line2": "2 66928  53.1595 344.8085 0001519  93.7828 130.3644 15.57983357  4105"
      },
      "geometry": {
        "type": "Point",
        "coordinates": [
          -88.56048433108317,
          -51.66319554882443
        ]
      }
    },
    {
      "type": "Feature",
      "properties": {
        "norad_id": 66929,
        "name": "STARLINK-36169",
        "group": "last-30-days",
        "lat": -49.877437693486684,
        "lon": -79.94145046518355,
        "alt_km": 404.2386813709736,
        "timestamp": "2025-12-26T07:29:17.194851+00:00",
        "meta_object_name": "STARLINK-36169",
        "meta_object_id": "2025-286E",
        "meta_epoch": "2025-12-25T22:00:01.999584",
        "meta_mean_motion": 15.57981362,
        "meta_eccentricity": 0.00016105,
        "meta_inclination": 53.1596,
        "meta_ra_of_asc_node": 344.798,
        "meta_arg_of_pericenter": 97.4791,
        "meta_mean_anomaly": 132.4205,
        "meta_ephemeris_type": 0,
        "meta_classification_type": "U",
        "meta_norad_cat_id": 66929,
        "meta_element_set_no": 999,
        "meta_rev_at_epoch": 410,
        "meta_bstar": -0.029361804,
        "meta_mean_motion_dot": -0.01968859,
        "meta_mean_motion_ddot": 0,
        "tle_line1": "1 66929U 25286E   25359.91668981 -.01968859  00000+0 -29362-1 0  9997",
        "tle_line2": "2 66929  53.1596 344.7980 0001610  97.4791 132.4205 15.57981362  4102"
      },
      "geometry": {
        "type": "Point",
        "coordinates": [
          -79.94145046518355,
          -49.877437693486684
        ]
      }
    },
    {
      "type": "Feature",
      "properties": {
        "norad_id": 66930,
        "name": "STARLINK-36206",
        "group": "last-30-days",
        "lat": -49.14615910578127,
        "lon": -77.22419511089154,
        "alt_km": 404.15128774732693,
        "timestamp": "2025-12-26T07:29:17.194861+00:00",
        "meta_object_name": "STARLINK-36206",
        "meta_object_id": "2025-286F",
        "meta_epoch": "2025-12-25T22:00:01.999584",
        "meta_mean_motion": 15.57987076,
        "meta_eccentricity": 0.000153,
        "meta_inclination": 53.1594,
        "meta_ra_of_asc_node": 344.7931,
        "meta_arg_of_pericenter": 97.4314,
        "meta_mean_anomaly": 134.3799,
        "meta_ephemeris_type": 0,
        "meta_classification_type": "U",
        "meta_norad_cat_id": 66930,
        "meta_element_set_no": 999,
        "meta_rev_at_epoch": 410,
        "meta_bstar": -0.029435798,
        "meta_mean_motion_dot": -0.0197353,
        "meta_mean_motion_ddot": 0,
        "tle_line1": "1 66930U 25286F   25359.91668981 -.01973530  00000+0 -29436-1 0  9993",
        "tle_line2": "2 66930  53.1594 344.7931 0001530  97.4314 134.3799 15.57987076  4107"
      },
      "geometry": {
        "type": "Point",
        "coordinates": [
          -77.22419511089154,
          -49.14615910578127
        ]
      }
    },
    {
      "type": "Feature",
      "properties": {
        "norad_id": 66931,
        "name": "STARLINK-36130",
        "group": "last-30-days",
        "lat": -48.35295861008723,
        "lon": -74.58618072793824,
        "alt_km": 404.14026443240346,
        "timestamp": "2025-12-26T07:29:17.194871+00:00",
        "meta_object_name": "STARLINK-36130",
        "meta_object_id": "2025-286G",
        "meta_epoch": "2025-12-25T22:00:01.999584",
        "meta_mean_motion": 15.57982105,
        "meta_eccentricity": 0.00015529,
        "meta_inclination": 53.1598,
        "meta_ra_of_asc_node": 344.7899,
        "meta_arg_of_pericenter": 97.2234,
        "meta_mean_anomaly": 136.5107,
        "meta_ephemeris_type": 0,
        "meta_classification_type": "U",
        "meta_norad_cat_id": 66931,
        "meta_element_set_no": 999,
        "meta_rev_at_epoch": 410,
        "meta_bstar": -0.029395018,
        "meta_mean_motion_dot": -0.01970821,
        "meta_mean_motion_ddot": 0,
        "tle_line1": "1 66931U 25286G   25359.91668981 -.01970821  00000+0 -29395-1 0  9998",
        "tle_line2": "2 66931  53.1598 344.7899 0001552  97.2234 136.5107 15.57982105  4103"
      },
      "geometry": {
        "type": "Point",
        "coordinates": [
          -74.58618072793824,
          -48.35295861008723
        ]
      }
    },
    {
      "type": "Feature",
      "properties": {
        "norad_id": 66932,
        "name": "STARLINK-36177",
        "group": "last-30-days",
        "lat": -47.50138138966198,
        "lon": -72.0356446578825,
        "alt_km": 404.086939766521,
        "timestamp": "2025-12-26T07:29:17.194881+00:00",
        "meta_object_name": "STARLINK-36177",
        "meta_object_id": "2025-286H",
        "meta_epoch": "2025-12-25T22:00:01.999584",
        "meta_mean_motion": 15.57986368,
        "meta_eccentricity": 0.00015349,
        "meta_inclination": 53.1598,
        "meta_ra_of_asc_node": 344.7849,
        "meta_arg_of_pericenter": 98.9048,
        "meta_mean_anomaly": 136.7392,
        "meta_ephemeris_type": 0,
        "meta_classification_type": "U",
        "meta_norad_cat_id": 66932,
        "meta_element_set_no": 999,
        "meta_rev_at_epoch": 410,
        "meta_bstar": -0.029394842,
        "meta_mean_motion_dot": -0.01971078,
        "meta_mean_motion_ddot": 0,
        "tle_line1": "1 66932U 25286H   25359.91668981 -.01971078  00000+0 -29395-1 0  9994",
        "tle_line2": "2 66932  53.1598 344.7849 0001534  98.9048 136.7392 15.57986368  4103"
      },
      "geometry": {
        "type": "Point",
        "coordinates": [
          -72.0356446578825,
          -47.50138138966198
        ]
      }
    }
  ]
}